     3.02           N: GNSS NAV DATA    G: GPS              RINEX VERSION / TYPE
Spider V6.2.0.6944  ICGC                20180117 002053 UTC PGM / RUN BY / DATE
GPSA   7.4506D-09 -1.4901D-08 -5.9605D-08  1.1921D-07       IONOSPHERIC CORR
GPSB   8.8064D+04 -4.9152D+04 -1.9661D+05  3.2768D+05       IONOSPHERIC CORR
GPUT  0.0000000000D+00-2.664535259D-15 503808 1984          TIME SYSTEM CORR
    18    18  1929     7                                    LEAP SECONDS
                                                            END OF HEADER
G04 2018 01 16 00 00 00 3.248779103160D-05 2.160049916711D-12 0.000000000000D+00
     1.460000000000D+02 1.176562500000D+02 5.399153568675D-09 1.550446818859D+00
     6.133690476418D-06 9.397994028404D-03 5.876645445824D-06 5.153674114227D+03
     1.728000000000D+05-2.533197402954D-07-2.439667611251D+00 6.146728992462D-08
     9.804039730293D-01 2.777812500000D+02 8.921053552432D-01-8.019262587311D-09
     2.228664197634D-10 1.000000000000D+00 1.984000000000D+03 0.000000000000D+00
     4.000000000000D+00 1.000000000000D+00-1.955777406693D-08 1.460000000000D+02
     1.655400000000D+05 0.000000000000D+00
G27 2018 01 16 00 00 00 3.627459518611D-04 2.046363078989D-12 0.000000000000D+00
     8.400000000000D+01-4.406250000000D+01 4.437327838502D-09 3.900033552395D-01
    -2.270564436913D-06 5.321321543306D-03 8.102506399155D-07 5.153678073883D+03
     1.728000000000D+05 3.352761268616D-08-1.424009803861D+00 2.980232238770D-08
     9.763554701300D-01 3.673437500000D+02 3.531915921218D-01-8.358562730848D-09
    -2.510818775114D-10 1.000000000000D+00 1.984000000000D+03 0.000000000000D+00
     2.000000000000D+00 0.000000000000D+00 1.862645149231D-09 8.400000000000D+01
     1.655400000000D+05                   
G04 2018 01 15 23 59 44 3.248872235417D-05 2.160049916711D-12 0.000000000000D+00
     0.000000000000D+00 1.176562500000D+02 5.399153568675D-09 1.548112731601D+00
     6.133690476418D-06 9.397992398590D-03 5.876645445824D-06 5.153674110413D+03
     1.727840000000D+05-2.533197402954D-07-2.439667478126D+00 6.332993507385D-08
     9.804039613260D-01 2.777812500000D+02 8.921057575456D-01-8.019262587311D-09
     2.228664197634D-10 1.000000000000D+00 1.984000000000D+03 0.000000000000D+00
     2.000000000000D+00 1.000000000000D+00-1.955777406693D-08 0.000000000000D+00
     1.655100000000D+05 0.000000000000D+00
G18 2018 01 16 00 00 00 6.335489451885D-04-1.136868377216D-13 0.000000000000D+00
     7.800000000000D+01 8.281250000000D+00 5.140928571734D-09 1.830951481473D+00
     2.533197402954D-07 1.836759794969D-02 8.894130587578D-06 5.153649187088D+03
     1.728000000000D+05 5.401670932770D-08 6.210868444743D-01-5.252659320831D-07
     9.264989776813D-01 1.878437500000D+02-1.759661507068D+00-8.119981131927D-09
     6.610989533584D-10 1.000000000000D+00 1.984000000000D+03 0.000000000000D+00
     2.000000000000D+00 0.000000000000D+00-1.117587089539D-08 7.800000000000D+01
     1.655400000000D+05                   
G10 2018 01 16 00 00 00 1.465720124543D-04 5.684341886081D-12 0.000000000000D+00
     5.700000000000D+01 1.450000000000D+01 4.481972570858D-09 2.410878277294D+00
     8.326023817062D-07 3.176535014063D-03 8.728355169296D-06 5.153668596268D+03
     1.728000000000D+05-1.173466444016D-07 6.716425839695D-01-1.490116119385D-08
     9.607428119373D-01 2.101250000000D+02-2.862875883140D+00-7.889971342934D-09
     6.243117134375D-10 1.000000000000D+00 1.984000000000D+03 0.000000000000D+00
     2.000000000000D+00 0.000000000000D+00 1.862645149231D-09 5.700000000000D+01
     1.655400000000D+05                   
G08 2018 01 15 23 59 44-8.778367191553D-05-1.250555214938D-12 0.000000000000D+00
     0.000000000000D+00-5.140625000000D+01 4.594119751289D-09 7.710835685085D-01
    -2.829357981682D-06 3.194138989784D-03 9.536743164063D-07 5.153746305466D+03
     1.727840000000D+05 3.539025783539D-08-1.431430887379D+00-5.215406417847D-08
     9.681935546564D-01 3.620937500000D+02-5.933334481597D-01-8.386420446982D-09
    -2.428672540855D-10 1.000000000000D+00 1.984000000000D+03 0.000000000000D+00
     2.000000000000D+00 0.000000000000D+00 5.587935447693D-09 0.000000000000D+00
     1.655100000000D+05                   
G26 2018 01 16 02 00 00-2.859337255359D-04 1.398348103976D-11 0.000000000000D+00
     6.000000000000D+00 1.275937500000D+02 4.620192228799D-09-2.996342095161D+00
     6.709247827530D-06 2.561802859418D-03 6.470829248428D-06 5.153598169327D+03
     1.800000000000D+05-8.009374141693D-08-2.483634973366D+00-2.048909664154D-08
     9.572406709048D-01 2.533750000000D+02-2.979343265034D-02-8.095336845315D-09
     2.667968346248D-10 1.000000000000D+00 1.984000000000D+03 0.000000000000D+00
     2.000000000000D+00 0.000000000000D+00 7.450580596924D-09 6.000000000000D+00
     1.727400000000D+05                   
G21 2018 01 16 02 00 00-4.413202404976D-04 4.092726157978D-12 0.000000000000D+00
     6.100000000000D+01-1.330937500000D+02 4.359824501421D-09-2.517841001430D+00
    -6.791204214096D-06 2.428121399134D-02 8.553266525269D-06 5.153790748596D+03
     1.800000000000D+05 2.793967723846D-07-4.176346988358D-01 7.636845111847D-08
     9.427066748769D-01 1.962812500000D+02-1.607636328620D+00-7.566386628355D-09
    -3.178703827933D-11 1.000000000000D+00 1.984000000000D+03 0.000000000000D+00
     2.000000000000D+00 0.000000000000D+00-1.024454832077D-08 6.100000000000D+01
     1.727400000000D+05                   
G29 2018 01 16 02 00 00 5.105533637106D-04-5.456968210638D-12 0.000000000000D+00
     4.800000000000D+01-5.075000000000D+01 4.263748909494D-09 2.773987756182D+00
    -2.754852175713D-06 4.384658532217D-04 1.007691025734D-06 5.153749879837D+03
     1.800000000000D+05-5.029141902924D-08-1.360301888091D+00 1.490116119385D-08
     9.827910281626D-01 3.690937500000D+02 7.694519437905D-01-8.228199455118D-09
    -2.400099841093D-10 1.000000000000D+00 1.984000000000D+03 0.000000000000D+00
     2.000000000000D+00 0.000000000000D+00-1.024454832077D-08 4.800000000000D+01
     1.727400000000D+05                   
G16 2018 01 16 02 00 00 3.398908302188D-05-5.684341886081D-13 0.000000000000D+00
     9.300000000000D+01 1.220625000000D+02 3.962664862911D-09 2.286825556904D+00
     6.290152668953D-06 9.718972025439D-03 5.705282092094D-06 5.153572742462D+03
     1.800000000000D+05-2.626329660416D-07-2.387036184107D+00-3.352761268616D-08
     9.882616556705D-01 2.851875000000D+02 4.556471036908D-01-7.797110512797D-09
     2.900120699145D-10 1.000000000000D+00 1.984000000000D+03 0.000000000000D+00
     2.000000000000D+00 0.000000000000D+00-1.071020960808D-08 9.300000000000D+01
     1.727400000000D+05                   
G20 2018 01 16 02 00 00 4.984056577086D-04 1.023181539495D-12 0.000000000000D+00
     4.600000000000D+01 2.562500000000D+00 5.150571524837D-09 2.420257302574D-01
     2.030283212662D-07 4.554408602417D-03 9.419396519661D-06 5.153772838593D+03
     1.800000000000D+05-4.656612873077D-08 5.700302354759D-01-1.043081283569D-07
     9.279711691983D-01 1.844062500000D+02 1.769319202150D+00-8.232842851896D-09
     5.503800748485D-10 1.000000000000D+00 1.984000000000D+03 0.000000000000D+00
     2.000000000000D+00 0.000000000000D+00-8.381903171539D-09 4.600000000000D+01
     1.727400000000D+05                   
G10 2018 01 16 02 00 00 1.466125249863D-04 5.684341886081D-12 0.000000000000D+00
     8.400000000000D+01 1.162500000000D+01 4.405540821040D-09-2.822093712079D+00
     6.388872861862D-07 3.177580540068D-03 9.244307875633D-06 5.153666629791D+03
     1.800000000000D+05 5.587935447693D-09 6.715862616235D-01-2.607703208923D-08
     9.607478590047D-01 2.030937500000D+02-2.862905289257D+00-7.771752130736D-09
     6.260975071726D-10 1.000000000000D+00 1.984000000000D+03 0.000000000000D+00
     2.000000000000D+00 0.000000000000D+00 1.862645149231D-09 8.400000000000D+01
     1.727400000000D+05                   
G31 2018 01 16 02 00 00 1.483587548137D-04-2.614797267597D-12 0.000000000000D+00
     1.080000000000D+02 2.621875000000D+01 4.280535481627D-09-1.697180404639D+00
     1.098960638046D-06 8.848225581460D-03 1.134164631367D-05 5.153596689224D+03
     1.800000000000D+05-6.332993507385D-08 2.800142861830D+00-1.359730958939D-07
     9.648311691138D-01 1.650625000000D+02-1.738562259468D-01-7.762466225358D-09
    -2.807259702475D-10 1.000000000000D+00 1.984000000000D+03 0.000000000000D+00
     2.800000000000D+00 0.000000000000D+00-1.350417733192D-08 1.080000000000D+02
     1.727400000000D+05                   
G25 2018 01 16 02 00 00-5.230065435171D-04-6.139089236967D-12 0.000000000000D+00
     8.400000000000D+01 1.302500000000D+02 4.165530587130D-09-2.513459773906D+00
     6.668269634247D-06 6.997237564065D-03 6.305053830147D-06 5.153702945709D+03
     1.800000000000D+05 1.024454832077D-07-2.464053608603D+00-1.341104507446D-07
     9.756090629935D-01 2.649375000000D+02 8.034086584297D-01-7.905329724167D-09
     3.535861603510D-10 1.000000000000D+00 1.984000000000D+03 0.000000000000D+00
     2.000000000000D+00 0.000000000000D+00 5.587935447693D-09 8.400000000000D+01
     1.727400000000D+05                   
G18 2018 01 16 02 00 00 6.335480138659D-04-1.136868377216D-13 0.000000000000D+00
     7.900000000000D+01 6.593750000000D+00 5.011994375081D-09 2.881176700117D+00
     3.241002559662D-07 1.836776186246D-02 8.990988135338D-06 5.153648359299D+03
     1.800000000000D+05 2.011656761169D-07 6.210308249523D-01-1.471489667892D-07
     9.265044650870D-01 1.836875000000D+02-1.759687064247D+00-7.812110958128D-09
     5.593089880129D-10 1.000000000000D+00 1.984000000000D+03 0.000000000000D+00
     2.000000000000D+00 0.000000000000D+00-1.117587089539D-08 7.900000000000D+01
     1.727400000000D+05                   
